ONEWEB-0607             
1 54671U 22166AF  24262.36747546  .00000007  00000+0 -13874-4 0  9992
2 54671  87.9362  10.7654 0001582  96.5512 263.5802 13.21827110 87419
ONEWEB-0608             
1 54672U 22166AG  24262.75222283  .00003622  00000+0  87314-2 0  9995
2 54672  87.9367  10.7158 0001553  97.0695 263.0616 13.21858260 87935
ONEWEB-0610             
1 54673U 22166AH  24262.35484242 -.00000001  00000+0 -33106-4 0  9999
2 54673  87.9362  10.7851 0001531  87.1754 272.9555 13.21829137 87328
ONEWEB-0611             
1 54674U 22166AJ  24262.34853804 -.00000018  00000+0 -73923-4 0  9992
2 54674  87.9362  10.7848 0002076 108.8787 251.2572 13.21828162 87312
ONEWEB-0612             
1 54675U 22166AK  24262.36116602  .00000008  00000+0 -12402-4 0  9996
2 54675  87.9360  10.7637 0001650  93.9321 266.2002 13.21827774 87303
ONEWEB-0615             
1 54676U 22166AL  24262.79641407  .00002666  00000+0  64234-2 0  9999
2 54676  87.9375  10.7046 0002170  91.5489 268.5893 13.21800779 87849
ONEWEB-0655             
1 54677U 22166AM  24262.31543268  .00000096  00000+0  20197-3 0  9990
2 54677  87.9362  10.8005 0001424 109.5857 250.5431 13.21827056 87309
ONEWEB-0659             
1 54678U 22166AN  24262.78695698  .00000052  00000+0  95311-4 0  9990
2 54678  87.9361  10.7126 0002047 101.0461 259.0904 13.21825503 87924
